[{"OBJECT_NAME":"SHIYAN-32 01","OBJECT_ID":"2025-255A","EPOCH":"2026-03-09T23:03:58.906080","MEAN_MOTION":15.47052613,"ECCENTRICITY":0.00126665,"INCLINATION":52.9936,"RA_OF_ASC_NODE":122.2768,"ARG_OF_PERICENTER":323.2691,"MEAN_ANOMALY":36.7446,"EPHEMERIS_TYPE":0,"CLASSIFICATION_TYPE":"U","NORAD_CAT_ID":66376,"ELEMENT_SET_NO":999,"REV_AT_EPOCH":1883,"BSTAR":0.00048306269,"MEAN_MOTION_DOT":0.00024542,"MEAN_MOTION_DDOT":0},{"OBJECT_NAME":"CZ-6A DEB","OBJECT_ID":"2024-140RH","EPOCH":"2026-03-09T12:32:13.567200","MEAN_MOTION":15.23024459,"ECCENTRICITY":0.01073082,"INCLINATION":88.6757,"RA_OF_ASC_NODE":253.1302,"ARG_OF_PERICENTER":74.0491,"MEAN_ANOMALY":287.2547,"EPHEMERIS_TYPE":0,"CLASSIFICATION_TYPE":"U","NORAD_CAT_ID":61163,"ELEMENT_SET_NO":999,"REV_AT_EPOCH":8457,"BSTAR":0.0019108924,"MEAN_MOTION_DOT":0.00053105,"MEAN_MOTION_DDOT":0}]
